[{"OBJECT_NAME":"LEGION 6","OBJECT_ID":"2025-025B","EPOCH":"2026-03-09T22:31:51.248640","MEAN_MOTION":15.16188393,"ECCENTRICITY":0.00128841,"INCLINATION":45.002,"RA_OF_ASC_NODE":22.5436,"ARG_OF_PERICENTER":290.9928,"MEAN_ANOMALY":68.9572,"EPHEMERIS_TYPE":0,"CLASSIFICATION_TYPE":"U","NORAD_CAT_ID":62901,"ELEMENT_SET_NO":999,"REV_AT_EPOCH":6057,"BSTAR":0.00036964993,"MEAN_MOTION_DOT":7.014e-5,"MEAN_MOTION_DDOT":0},{"OBJECT_NAME":"FLOCK 4H-14","OBJECT_ID":"2025-276BD","EPOCH":"2026-03-09T18:06:02.785824","MEAN_MOTION":15.19730071,"ECCENTRICITY":3.495e-5,"INCLINATION":97.4271,"RA_OF_ASC_NODE":144.1548,"ARG_OF_PERICENTER":86.5401,"MEAN_ANOMALY":273.5873,"EPHEMERIS_TYPE":0,"CLASSIFICATION_TYPE":"U","NORAD_CAT_ID":66717,"ELEMENT_SET_NO":999,"REV_AT_EPOCH":1458,"BSTAR":0.00042464061,"MEAN_MOTION_DOT":9.011e-5,"MEAN_MOTION_DDOT":0}]
